STARLINK-36911          
1 68008U 26039Y   26138.91700733  .00012339  00000+0  45696-3 0  9992
2 68008  43.0052  12.3301 0001709 275.4806  84.5850 15.27594435 12443
STARLINK-36956          
1 68009U 26039Z   26138.91316145  .00012048  00000+0  44669-3 0  9999
2 68009  43.0062  12.3012 0001966 276.4791  83.5836 15.27575895 12445
STARLINK-36953          
1 68010U 26039AA  26138.77210092  .00010557  00000+0  39266-3 0  9999
2 68010  43.0028  12.9525 0001673 266.0800  93.9860 15.27576427 12427
STARLINK-36991          
1 68011U 26039AB  26138.76826861  .00018668  00000+0  68666-3 0  9993
2 68011  43.0043  12.9521 0001816 268.0038  92.0606 15.27556935 12425
STARLINK-36936          
1 68012U 26039AC  26138.95669885  .00018704  00000+0  68740-3 0  9990
2 68012  43.0032  11.7641 0001348 279.3205  80.7494 15.27584465 12456
STARLINK-36967          
1 68013U 26039AD  26138.97469421  .00020779  00000+0  76358-3 0  9996
2 68013  43.0056  11.9167 0001043 277.6302  82.4431 15.27533690 12453
STARLINK-36985          
1 68014U 26039AE  26138.76438854  .00021259  00000+0  77910-3 0  9999
2 68014  43.0035  12.8951 0001953 292.1423  67.9221 15.27610228 12423
STARLINK-36335          
1 68015U 26040A   26139.13008371  .00018150  00000+0  56272-3 0  9995
2 68015  97.2876  88.1616 0002444  95.5526 264.5995 15.33468397 12256
STARLINK-36923          
1 68016U 26040B   26139.12464640  .00023106  00000+0  71520-3 0  9990
2 68016  97.2890  88.1656 0002779  93.5937 266.5623 15.33470760 12259
STARLINK-36568          
1 68017U 26040C   26139.12192707  .00019032  00000+0  58993-3 0  9995
2 68017  97.2865  88.1717 0002754  91.5902 268.5656 15.33465681 12257
STARLINK-36930          
1 68018U 26040D   26139.12736536  .00017921  00000+0  55564-3 0  9996
2 68018  97.2879  88.1647 0002467  95.0196 265.1329 15.33470200 12253
STARLINK-36921          
1 68019U 26040E   26139.31227661  .00017295  00000+0  53692-3 0  9996
2 68019  97.2865  88.3742 0001625  92.0633 268.0795 15.33437163 12288
STARLINK-36928          
1 68020U 26040F   26139.31497321  .00014230  00000+0  44212-3 0  9994
2 68020  97.2874  88.3692 0001097  93.0974 267.0395 15.33455284 12285
STARLINK-36858          
1 68021U 26040G   26139.30409931  .00012838  00000+0  39930-3 0  9997
2 68021  97.2865  88.3862 0001609 102.6968 257.4455 15.33444711 12311
STARLINK-36916          
1 68022U 26040H   26139.30953200  .00015148  00000+0  47041-3 0  9990
2 68022  97.2841  88.3747 0001775 149.5800 210.5546 15.33456165 12280
STARLINK-36871          
1 68023U 26040J   26139.30681909  .00015032  00000+0  46682-3 0  9997
2 68023  97.2859  88.3840 0002033 100.6148 259.5324 15.33456761 12284
STARLINK-36891          
1 68024U 26040K   26139.30137943  .00014623  00000+0  45435-3 0  9992
2 68024  97.2868  88.3862 0001435 100.2363 259.9042 15.33448042 12283
STARLINK-36378          
1 68025U 26040L   26139.29593888  .00013389  00000+0  41616-3 0  9990
2 68025  97.2906  88.3952 0001423  98.0137 262.1267 15.33456363 12287
STARLINK-36884          
1 68026U 26040M   26139.29865733  .00011113  00000+0  34591-3 0  9999
2 68026  97.2869  88.3922 0001108 100.2467 259.8901 15.33458594 12281
STARLINK-36940          
1 68027U 26040N   26139.13280179  .00021760  00000+0  67394-3 0  9994
2 68027  97.2875  88.3129 0002251  92.8599 267.2901 15.33465885 12262
STARLINK-36253          
1 68028U 26040P   26139.12860687  .00014869  00000+0  46167-3 0  9999
2 68028  97.2879  87.2437 0002504  86.9889 273.1640 15.33465580 12194
STARLINK-36944          
1 68029U 26040Q   26139.29321348  .00002992  00000+0  94964-4 0  9997
2 68029  97.2858  88.3987 0000624  91.3749 268.7566 15.33450073 12288
STARLINK-36942          
1 68030U 26040R   26139.09474855  .00016250  00000+0  50470-3 0  9994
2 68030  97.2866  88.2106 0001712  85.9294 274.2144 15.33437708 12255
STARLINK-36913          
1 68031U 26040S   26139.28779113  .00034197  00000+0  10556-2 0  9991
2 68031  97.2912  88.3993 0003140  78.2388 281.9207 15.33476719 12282
STARLINK-36935          
1 68032U 26040T   26139.13552189  .00021508  00000+0  66603-3 0  9995
2 68032  97.2892  88.3092 0002766  91.9786 268.1773 15.33471878 12261
STARLINK-36947          
1 68033U 26040U   26138.50200763  .00016463  00000+0  51107-3 0  9991
2 68033  97.2869  87.6388 0001801  98.1962 261.9485 15.33448635 12165
STARLINK-36939          
1 68034U 26040V   26139.25001157  .00088286  00000+0  27092-2 0  9998
2 68034  97.2860  88.3984 0001508  90.1424 136.6124 15.33398149  5777
STARLINK-36943          
1 68035U 26040W   26139.13823943  .00021255  00000+0  65831-3 0  9998
2 68035  97.2866  88.3068 0001623  92.9310 267.2118 15.33471525 13390
STARLINK-36906          
1 68036U 26040X   26138.36333611  .00013158  00000+0  40923-3 0  9999
2 68036  97.2859  87.5147 0001693 100.7701 259.3732 15.33439847 12148
STARLINK-36388          
1 68037U 26040Y   26138.35790216  .00017418  00000+0  54055-3 0  9991
2 68037  97.2856  87.5264 0001629  98.1575 261.9853 15.33447379 12146
