OBJECT_NAME,OBJECT_ID,EPOCH,MEAN_MOTION,ECCENTRICITY,INCLINATION,RA_OF_ASC_NODE,ARG_OF_PERICENTER,MEAN_ANOMALY,EPHEMERIS_TYPE,CLASSIFICATION_TYPE,NORAD_CAT_ID,ELEMENT_SET_NO,REV_AT_EPOCH,BSTAR,MEAN_MOTION_DOT,MEAN_MOTION_DDOT
STARLINK-36911,2026-039Y,2026-05-18T22:00:29.433312,15.27594435,.0001709,43.0052,12.3301,275.4806,84.5850,0,U,68008,999,1244,.45696E-3,.12339E-3,0
STARLINK-36956,2026-039Z,2026-05-18T21:54:57.149280,15.27575895,.0001966,43.0062,12.3012,276.4791,83.5836,0,U,68009,999,1244,.44669E-3,.12048E-3,0
STARLINK-36953,2026-039AA,2026-05-18T18:31:49.519488,15.27576427,.00016734,43.0028,12.9525,266.0800,93.9860,0,U,68010,999,1242,.39266148E-3,.10557E-3,0
STARLINK-36991,2026-039AB,2026-05-18T18:26:18.407904,15.27556935,.00018163,43.0043,12.9521,268.0038,92.0606,0,U,68011,999,1242,.68665994E-3,.18668E-3,0
STARLINK-36936,2026-039AC,2026-05-18T22:57:38.780640,15.27584465,.00013482,43.0032,11.7641,279.3205,80.7494,0,U,68012,999,1245,.68740096E-3,.18704E-3,0
STARLINK-36967,2026-039AD,2026-05-18T23:23:33.579744,15.27533690,.00010431,43.0056,11.9167,277.6302,82.4431,0,U,68013,999,1245,.763577E-3,.20779E-3,0
STARLINK-36985,2026-039AE,2026-05-18T18:20:43.169856,15.27610228,.00019535,43.0035,12.8951,292.1423,67.9221,0,U,68014,999,1242,.77910157E-3,.21259E-3,0
STARLINK-36335,2026-040A,2026-05-19T03:07:19.232544,15.33468397,.00024441,97.2876,88.1616,95.5526,264.5995,0,U,68015,999,1225,.56271571E-3,.1815E-3,0
STARLINK-36923,2026-040B,2026-05-19T02:59:29.448960,15.33470760,.00027794,97.2890,88.1656,93.5937,266.5623,0,U,68016,999,1225,.71520245E-3,.23106E-3,0
STARLINK-36568,2026-040C,2026-05-19T02:55:34.498848,15.33465681,.00027542,97.2865,88.1717,91.5902,268.5656,0,U,68017,999,1225,.58993059E-3,.19032E-3,0
STARLINK-36930,2026-040D,2026-05-19T03:03:24.367104,15.33470200,.00024676,97.2879,88.1647,95.0196,265.1329,0,U,68018,999,1225,.55563835E-3,.17921E-3,0
STARLINK-36921,2026-040E,2026-05-19T07:29:40.699104,15.33437163,.00016254,97.2865,88.3742,92.0633,268.0795,0,U,68019,999,1228,.53692336E-3,.17295E-3,0
STARLINK-36928,2026-040F,2026-05-19T07:33:33.685344,15.33455284,.00010976,97.2874,88.3692,93.0974,267.0395,0,U,68020,999,1228,.44211803E-3,.1423E-3,0
STARLINK-36858,2026-040G,2026-05-19T07:17:54.180384,15.33444711,.00016095,97.2865,88.3862,102.6968,257.4455,0,U,68021,999,1231,.39930036E-3,.12838E-3,0
STARLINK-36916,2026-040H,2026-05-19T07:25:43.564800,15.33456165,.00017752,97.2841,88.3747,149.5800,210.5546,0,U,68022,999,1228,.47041064E-3,.15148E-3,0
STARLINK-36871,2026-040J,2026-05-19T07:21:49.169376,15.33456761,.00020333,97.2859,88.3840,100.6148,259.5324,0,U,68023,999,1228,.4668192E-3,.15032E-3,0
STARLINK-36891,2026-040K,2026-05-19T07:13:59.182752,15.33448042,.00014354,97.2868,88.3862,100.2363,259.9042,0,U,68024,999,1228,.45434575E-3,.14623E-3,0
STARLINK-36378,2026-040L,2026-05-19T07:06:09.119232,15.33456363,.00014236,97.2906,88.3952,98.0137,262.1267,0,U,68025,999,1228,.41615958E-3,.13389E-3,0
STARLINK-36884,2026-040M,2026-05-19T07:10:03.993312,15.33458594,.00011088,97.2869,88.3922,100.2467,259.8901,0,U,68026,999,1228,.34590865E-3,.11113E-3,0
STARLINK-36940,2026-040N,2026-05-19T03:11:14.074656,15.33465885,.00022512,97.2875,88.3129,92.8599,267.2901,0,U,68027,999,1226,.67394353E-3,.2176E-3,0
STARLINK-36253,2026-040P,2026-05-19T03:05:11.633568,15.33465580,.00025044,97.2879,87.2437,86.9889,273.1640,0,U,68028,999,1219,.4616675E-3,.14869E-3,0
STARLINK-36944,2026-040Q,2026-05-19T07:02:13.644672,15.33450073,.00006246,97.2858,88.3987,91.3749,268.7566,0,U,68029,999,1228,.94963688E-4,.2992E-4,0
STARLINK-36942,2026-040R,2026-05-19T02:16:26.274720,15.33437708,.00017128,97.2866,88.2106,85.9294,274.2144,0,U,68030,999,1225,.50470385E-3,.1625E-3,0
STARLINK-36913,2026-040S,2026-05-19T06:54:25.153632,15.33476719,.00031404,97.2912,88.3993,78.2388,281.9207,0,U,68031,999,1228,.1055629E-2,.34197E-3,0
STARLINK-36935,2026-040T,2026-05-19T03:15:09.091296,15.33471878,.00027666,97.2892,88.3092,91.9786,268.1773,0,U,68032,999,1226,.66603135E-3,.21508E-3,0
STARLINK-36947,2026-040U,2026-05-18T12:02:53.459232,15.33448635,.00018013,97.2869,87.6388,98.1962,261.9485,0,U,68033,999,1216,.51107354E-3,.16463E-3,0
STARLINK-36939,2026-040V,2026-05-19T06:00:00.999648,15.33398149,.00015087,97.2860,88.3984,90.1424,136.6124,0,U,68034,999,577,.27091566E-2,.88286E-3,0
STARLINK-36943,2026-040W,2026-05-19T03:19:03.886752,15.33471525,.00016235,97.2866,88.3068,92.9310,267.2118,0,U,68035,999,1339,.65830677E-3,.21255E-3,0
STARLINK-36906,2026-040X,2026-05-18T08:43:12.239904,15.33439847,.00016938,97.2859,87.5147,100.7701,259.3732,0,U,68036,999,1214,.40923479E-3,.13158E-3,0
STARLINK-36388,2026-040Y,2026-05-18T08:35:22.746624,15.33447379,.00016291,97.2856,87.5264,98.1575,261.9853,0,U,68037,999,1214,.54054852E-3,.17418E-3,0
